GREENCUBE               
1 53106U 22080B   24304.53297825 -.00000003  00000+0  00000+0 0  9993
2 53106  70.1303 145.5071 0008350  77.3743 282.7850  6.42557747 53963
CAS-5A (FO-118)         
1 54684U 22167C   24306.84678817  .00132588  00000+0  25429-2 0  9999
2 54684  97.6161  96.4772 0007491   4.3594 355.7719 15.47480795105441
STRATOSAT-TK 1 (RS52S)  
1 57167U 23091B   24306.85941061  .00053287  00000+0  24035-2 0  9990
2 57167  97.5921   0.1113 0013035   8.9911 351.1555 15.20745830 74413
UMKA 1 (RS40S)          
1 57172U 23091G   24306.87136406  .00019069  00000+0  11503-2 0  9993
2 57172  97.5942 357.6540 0016255  17.0660 343.1113 15.10674599 74250
CUBESX-HSE 3 (RS42S)    
1 57178U 23091N   24306.71920975  .00024495  00000+0  13691-2 0  9993
2 57178  97.5970 358.3941 0015945   9.6223 350.5310 15.13376145 74279
MONITOR-4 (RS57S)       
1 57182U 23091S   24306.82892022  .00025967  00000+0  14842-2 0  9995
2 57182  97.5963 358.1737 0016471  10.6505 349.5071 15.12552878 74277
MONITOR-2 (RS39S)       
1 57184U 23091U   24306.84191196  .00016874  00000+0  10288-2 0  9990
2 57184  97.5965 358.0396 0013623   6.5824 353.5581 15.10346935 74268
SVYATOBOR 1 (RS60S)     
1 57187U 23091X   24306.81586715  .00022865  00000+0  12943-2 0  9992
2 57187  97.5973 358.8487 0012665   3.5990 356.5330 15.12976685 74319
VIZARD-METEO (RS38S)    
1 57189U 23091Z   24306.87322058  .00030163  00000+0  15951-2 0  9990
2 57189  97.5964 359.6449 0011288   0.3702 359.7536 15.15356487 74378
NANOZOND 1 (RS49S)      
1 57190U 23091AA  24306.82182102  .00050514  00000+0  23064-2 0  9997
2 57190  97.5933   0.7740 0009335   2.6106 357.5176 15.20378359 74450
POLYTECH-UNIVERSE 3 (R*)
1 57191U 23091AB  24306.84874194  .00016779  00000+0  10203-2 0  9995
2 57191  97.5932 357.6664 0019063  21.7900 338.4136 15.10369278 74253
UTMN 2 (RS27S)          
1 57203U 23091AP  24306.85635776  .00026758  00000+0  14507-2 0  9990
2 57203  97.5958 359.3568 0011728   0.3807 359.7432 15.14494900 74357
ARCCUBE 1 (RS25S)       
1 57205U 23091AR  24306.77751072  .00057260  00000+0  24157-2 0  9995
2 57205  97.5885   1.1334 0009123   1.7371 358.3895 15.23045382 74486
KUZGTU 1 (RS47S)        
1 57217U 23091AV  24306.87824945  .00026860  00000+0  15120-2 0  9991
2 57217  97.5950 358.3314 0016027  11.1293 349.0289 15.13099581 74298
HADES-D (SO-121)        
1 58567U 23174CY  24306.16763282  .01719829  15651-2  52222-2 0  9990
2 58567  97.4226  25.4853 0006238 298.8718  61.1929 15.92401118 54944
SONATE-2                
1 59112U 24043Q   24306.59705305  .00036754  00000+0  14869-2 0  9994
2 59112  97.4937  69.5692 0013496 170.8391 189.3095 15.24532046 36699
MESAT1                  
1 60209U 24125G   24306.57590652  .00036204  00000+0  14583-2 0  9992
2 60209  97.3034 156.0640 0022954 198.0220 162.0207 15.24518362 18308
OOV-CUBE (TUBSAT-30)    
1 60240U 24128F   24306.48771575  .00008810  00000+0  75835-3 0  9995
2 60240  61.9962 125.4751 0021869 352.7536   7.3233 14.97801129 17164
CUTE-1 (CO-55)          
1 27844U 03031E   24306.58450029  .00001786  00000+0  80257-3 0  9996
2 27844  98.6789 311.7441 0010811 104.1576 256.0804 14.23595874107337
CUBESAT XI-IV (CO-57)   
1 27848U 03031J   24306.50429719  .00001516  00000+0  69208-3 0  9998
2 27848  98.6821 311.8277 0010555 119.3149 240.9085 14.22989823107068
CUBESAT XI-V            
1 28895U 05043F   24306.34948041  .00009592  00000+0  16353-2 0  9996
2 28895  98.2209  82.6514 0014294 284.8461  75.1161 14.69142751 14582
CUTE-1.7+APD II (CO-65) 
1 32785U 08021C   24306.47997674  .00019112  00000+0  15417-2 0  9997
2 32785  97.7741 271.0549 0008756 226.8560 133.1931 14.99888679896031
AAUSAT-II               
1 32788U 08021F   24305.93176109  .00088613  00000+0  29745-2 0  9993
2 32788  97.6042 287.7202 0008278  72.2165 287.9978 15.30481666899235
CANX-2                  
1 32790U 08021H   24306.43195711  .00016772  00000+0  14255-2 0  9999
2 32790  97.7843 269.6074 0010112 232.6552 127.3750 14.97891524895811
SEEDS II (CO-66)        
1 32791U 08021J   24306.19612051  .00038060  00000+0  23826-2 0  9992
2 32791  97.7073 277.1715 0004217 166.7736 193.3604 15.09268631897222
SWISSCUBE               
1 35932U 09051B   24306.41521411  .00006590  00000+0  13804-2 0  9998
2 35932  98.4497 192.3994 0005664 254.4819 105.5755 14.60061823802577
BEESAT-1                
1 35933U 09051C   24306.58745677  .00005074  00000+0  10749-2 0  9990
2 35933  98.4427 193.2940 0004129 270.1199  89.9527 14.59661213802662
ITUPSAT1                
1 35935U 09051E   24306.42876641  .00005263  00000+0  11416-2 0  9993
2 35935  98.4527 192.8379 0006458 278.2086  81.8380 14.58546413802264
TISAT 1                 
1 36799U 10035E   24306.40788248  .00036450  00000+0  23894-2 0  9994
2 36799  98.0698 202.0841 0005623 110.8957 249.2872 15.07580804777698
AEROCUBE 4.5A           
1 38767U 12048K   24306.24290299  .00065911  00000+0  27483-2 0  9995
2 38767  64.6555 231.4118 0110672 333.9542  25.6037 15.17811072281209
AEROCUBE 4.5B           
1 38768U 12048L   24306.86626933  .00132556  00000+0  25187-2 0  9991
2 38768  64.6467 141.3367 0073948 319.0333  40.5262 15.44595312282522
STRAND-1                
1 39090U 13009E   24306.45192664  .00001969  00000+0  68650-3 0  9998
2 39090  98.3790 131.0022 0008403 196.3019 163.7899 14.36409469611942
BRITE-AUSTRIA           
1 39091U 13009F   24306.45801301  .00001352  00000+0  47955-3 0  9995
2 39091  98.3839 130.2835 0009732 204.7298 155.3423 14.36034635611960
NEE-01 PEGASO           
1 39151U 13018B   24306.31361035  .00013592  00000+0  14865-2 0  9994
2 39151  98.0513  65.0601 0013638 314.5839  45.4263 14.87889362622346
ESTCUBE 1               
1 39161U 13021C   24306.72745291  .00008749  00000+0  12214-2 0  9998
2 39161  97.8131   9.0092 0009649 138.7601 221.4341 14.77864105617436
POPACS 1                
1 39268U 13055D   24306.47780669  .00079293  43094-6  11335-2 0  9995
2 39268  80.9781 351.8842 0346232   6.2089 354.3254 15.09061914581117
POPACS 2                
1 39269U 13055E   24305.66834395  .00029705  00000+0  65697-3 0  9999
2 39269  80.9979  90.5206 0523803 264.7051  89.4202 14.63448236575510
POPACS 3                
1 39270U 13055F   24306.58427017  .00017896  00000+0  47202-3 0  9992
2 39270  81.0036 144.9884 0611925  56.9760 308.8698 14.41188982552725
ZACUBE-1 (TSHEPISOSAT)  
1 39417U 13066B   24306.60689127  .00018309  00000+0  17558-2 0  9992
2 39417  97.7510 259.8535 0050116  66.1311 294.5148 14.92207124592059
WNISAT-1                
1 39423U 13066H   24306.50192426  .00004124  00000+0  78481-3 0  9992
2 39423  97.6658 129.7598 0166962 298.1396  60.3018 14.56015098580418
TRITON-1                
1 39427U 13066M   24306.82983549  .00017342  00000+0  23133-2 0  9994
2 39427  97.8381 220.5066 0099485 359.5344   0.5757 14.76213844586690
DELFI-N3XT              
1 39428U 13066N   24306.52759274  .00029300  00000+0  33887-2 0  9992
2 39428  97.8345 221.5245 0095173   3.8574 356.3352 14.82224975586401
GOMX-1                  
1 39430U 13066Q   24306.89705340  .00008794  00000+0  14134-2 0  9998
2 39430  97.7085 172.9121 0136546 173.8418 186.4506 14.65714262583203
CUBEBUG-2 (LO-74)       
1 39440U 13066AA  24306.34530955  .00015569  00000+0  17123-2 0  9996
2 39440  97.8253 247.3459 0066179 183.2680 176.8112 14.86077531588680
NEE-02 KRYSAOR          
1 39441U 13066AB  24306.80554042  .00008538  00000+0  10367-2 0  9992
2 39441  97.8336 243.0630 0070868 206.7723 152.9826 14.81977046589465
FUNCUBE-1 (AO-73)       
1 39444U 13066AE  24306.40102692  .00028329  00000+0  24661-2 0  9993
2 39444  97.7357 263.2051 0046703  45.6852 314.8184 14.96026848590598
UWE-3                   
1 39446U 13066AG  24306.56637464  .00014134  00000+0  14635-2 0  9991
2 39446  97.7969 253.6973 0059012 125.7430 234.9296 14.88850971589120
BRITE-CA1 (TORONTO)     
1 40020U 14033L   24306.80581710  .00004630  00000+0  73415-3 0  9997
2 40020  97.8974  79.3252 0082005  13.4120 346.9240 14.70401505555196
DUCHIFAT-1              
1 40021U 14033M   24306.50805380  .00044474  00000+0  24027-2 0  9991
2 40021  98.0997 298.1220 0011860  10.6569 349.4910 15.14499784564858
NANOSATC-BR1            
1 40024U 14033Q   24306.51032611  .00032730  00000+0  20727-2 0  9999
2 40024  98.0775 284.9193 0008377  72.6847 287.5296 15.08864660563910
QB50P1                  
1 40025U 14033R   24306.43455831  .00027727  00000+0  20081-2 0  9997
2 40025  98.0607 272.1983 0015079  80.4603 279.8324 15.03849358563474
QB50P2                  
1 40032U 14033Y   24306.59836124  .00023229  00000+0  17554-2 0  9994
2 40032  98.0177 263.0847 0011412  37.7845 322.4178 15.02321775563279
PERSEUS-M2              
1 40037U 14033AD  24306.79804263  .00008103  00000+0  80584-3 0  9998
2 40037  97.9345 238.2210 0014455  99.4533 260.8319 14.91861443562837
PERSEUS-M1              
1 40039U 14033AF  24306.37122172  .00009219  00000+0  91918-3 0  9998
2 40039  97.9122 233.4428 0014413  99.6334 260.6514 14.91716789562124
POLYITAN-1              
1 40042U 14033AJ  24306.38662122  .00042447  00000+0  27157-2 0  9990
2 40042  98.0864 276.9283 0013975  41.4538 318.7746 15.08369598563479
TIGRISAT                
1 40043U 14033AK  24306.41812487  .00012177  00000+0  15533-2 0  9998
2 40043  97.7095 103.4917 0053098 215.2952 144.4741 14.80613658557752
AEROCUBE 6A             
1 40045U 14033AM  24306.45412070  .00026111  00000+0  28534-2 0  9996
2 40045  97.6764 114.8903 0047078 189.2560 170.7794 14.87010792558166
AEROCUBE 6B             
1 40046U 14033AN  24306.40600364  .00027647  00000+0  29516-2 0  9993
2 40046  97.6734 113.6808 0045842 183.9908 176.0950 14.87984548558228
